{"spkid": "20377732", "covariance": {"labels": ["e", "q", "tp", "node", "peri", "i"], "elements": [{"name": "e", "sigma": 1.49624486830869e-08, "units": null, "title": "eccentricity", "value": ".6211216417499958", "label": "e"}, {"label": "q", "sigma": 2.85942977839947e-08, "name": "q", "value": ".7315695208487378", "title": "perihelion distance", "units": "au"}, {"title": "time of perihelion passage", "value": "2458702.038787738719", "units": "TDB", "name": "tp", "sigma": 4.88868708655976e-06, "label": "tp"}, {"title": "longitude of the ascending node", "value": "115.9520870663904", "units": "deg", "name": "om", "sigma": 3.97804003141594e-06, "label": "node"}, {"label": "peri", "sigma": 4.29151701894658e-06, "name": "w", "value": "67.3489990261909", "title": "argument of perihelion", "units": "deg"}, {"units": "deg", "value": "23.57404871048983", "title": "inclination", "sigma": 5.52303890424791e-06, "name": "i", "label": "i"}], "data": [["2.23874870594009E-16", "-4.276332651207923E-16", "-2.662636889537422E-14", "-1.261557013787877E-14", "5.253180573603935E-15", "-1.029252691000878E-14"], ["-4.276332651207923E-16", "8.176338657597654E-16", "5.284032386918591E-14", "2.448712203231392E-14", "-1.017906228656964E-14", "1.917444949794457E-14"], ["-2.662636889537422E-14", "5.284032386918591E-14", "2.389926143029614E-11", "1.013370081754027E-11", "6.087116409770622E-12", "-5.954825937335197E-12"], ["-1.261557013787877E-14", "2.448712203231392E-14", "1.013370081754027E-11", "1.582480249154773E-11", "-8.890486623352898E-12", "-1.894973137304367E-11"], ["5.253180573603935E-15", "-1.017906228656964E-14", "6.087116409770622E-12", "-8.890486623352898E-12", "1.841711832390811E-11", "1.702119347431209E-11"], ["-1.029252691000878E-14", "1.917444949794457E-14", "-5.954825937335197E-12", "-1.894973137304367E-11", "1.702119347431209E-11", "3.050395873783592E-11"]], "epoch": "2458413.5"}, "elements": [{"name": "e", "sigma": "1.4941E-8", "units": null, "title": "eccentricity", "value": ".6206466828405265", "label": "e"}, {"label": "a", "units": "au", "title": "semi-major axis", "value": "1.931246093903698", "sigma": "2.518E-9", "name": "a"}, {"units": "au", "title": "perihelion distance", "value": ".7326246119736437", "name": "q", "sigma": "2.855E-8", "label": "q"}, {"title": "inclination; angle with respect to x-y ecliptic plane", "value": "23.55872222803277", "units": "deg", "name": "i", "sigma": "5.5253E-6", "label": "i"}, {"name": "om", "sigma": "3.9479E-6", "value": "115.7868762330749", "title": "longitude of the ascending node", "units": "deg", "label": "node"}, {"label": "peri", "name": "w", "sigma": "4.2823E-6", "title": "argument of perihelion", "value": "67.45130790607072", "units": "deg"}, {"sigma": "2.9326E-6", "name": "ma", "title": "mean anomaly", "value": "197.8728164900287", "units": "deg", "label": "M"}, {"label": "tp", "units": "TDB", "title": "time of perihelion passage", "value": "2461641.977110933598", "sigma": "8.705E-6", "name": "tp"}, {"units": "d", "value": "980.290636618136", "title": "sidereal orbital period", "sigma": "1.9172E-6", "name": "per", "label": "period"}, {"units": "deg/d", "value": ".3672380277362937", "title": "mean motion", "sigma": "7.1821E-10", "name": "n", "label": "n"}, {"sigma": "4.0807E-9", "name": "ad", "title": "aphelion distance", "value": "3.129867575833751", "units": "au", "label": "Q"}], "epoch": "2461200.5"}